{
  "type": "FeatureCollection",
  "features": [
    {
      "type": "Feature",
      "properties": {
        "norad_id": 36036,
        "name": "SMOS",
        "group": "resource",
        "lat": -22.68430207773962,
        "lon": -171.79559695081508,
        "alt_km": 764.8738463970622,
        "timestamp": "2025-12-25T19:00:39.004922+00:00",
        "meta_object_name": "SMOS",
        "meta_object_id": "2009-059A",
        "meta_epoch": "2025-12-25T02:26:16.778112",
        "meta_mean_motion": 14.3975208,
        "meta_eccentricity": 0.00010518,
        "meta_inclination": 98.4382,
        "meta_ra_of_asc_node": 183.967,
        "meta_arg_of_pericenter": 83.1567,
        "meta_mean_anomaly": 276.9741,
        "meta_ephemeris_type": 0,
        "meta_classification_type": "U",
        "meta_norad_cat_id": 36036,
        "meta_element_set_no": 999,
        "meta_rev_at_epoch": 84840,
        "meta_bstar": 0.00014263233,
        "meta_mean_motion_dot": 4.03e-06,
        "meta_mean_motion_ddot": 0,
        "tle_line1": "1 36036U 09059A   25359.10158308  .00000403  00000+0  14263-3 0  9996",
        "tle_line2": "2 36036  98.4382 183.9670 0001051  83.1567 276.9741 14.39752080848404"
      },
      "geometry": {
        "type": "Point",
        "coordinates": [
          -171.79559695081508,
          -22.68430207773962
        ]
      }
    },
    {
      "type": "Feature",
      "properties": {
        "norad_id": 36110,
        "name": "YAOGAN-7",
        "group": "resource",
        "lat": 35.239016947239236,
        "lon": 67.22493302000815,
        "alt_km": 634.8043156724425,
        "timestamp": "2025-12-25T19:00:39.004932+00:00",
        "meta_object_name": "YAOGAN-7",
        "meta_object_id": "2009-069A",
        "meta_epoch": "2025-12-25T06:58:56.573184",
        "meta_mean_motion": 14.77750189,
        "meta_eccentricity": 0.00234624,
        "meta_inclination": 98.0293,
        "meta_ra_of_asc_node": 241.0027,
        "meta_arg_of_pericenter": 238.5116,
        "meta_mean_anomaly": 121.3802,
        "meta_ephemeris_type": 0,
        "meta_classification_type": "U",
        "meta_norad_cat_id": 36110,
        "meta_element_set_no": 999,
        "meta_rev_at_epoch": 86394,
        "meta_bstar": 9.9600039e-05,
        "meta_mean_motion_dot": 6.64e-06,
        "meta_mean_motion_ddot": 0,
        "tle_line1": "1 36110U 09069A   25359.29093256  .00000664  00000+0  99600-4 0  9998",
        "tle_line2": "2 36110  98.0293 241.0027 0023462 238.5116 121.3802 14.77750189863949"
      },
      "geometry": {
        "type": "Point",
        "coordinates": [
          67.22493302000815,
          35.239016947239236
        ]
      }
    },
    {
      "type": "Feature",
      "properties": {
        "norad_id": 36605,
        "name": "TANDEM-X",
        "group": "resource",
        "lat": 7.23997434176496,
        "lon": -174.06643138581583,
        "alt_km": 510.32668865718006,
        "timestamp": "2025-12-25T19:00:39.004943+00:00",
        "meta_object_name": "TANDEM-X",
        "meta_object_id": "2010-030A",
        "meta_epoch": "2025-12-24T13:47:55.228992",
        "meta_mean_motion": 15.19151393,
        "meta_eccentricity": 0.00017737,
        "meta_inclination": 97.4454,
        "meta_ra_of_asc_node": 3.7821,
        "meta_arg_of_pericenter": 94.5594,
        "meta_mean_anomaly": 265.5843,
        "meta_ephemeris_type": 0,
        "meta_classification_type": "U",
        "meta_norad_cat_id": 36605,
        "meta_element_set_no": 999,
        "meta_rev_at_epoch": 86013,
        "meta_bstar": 4.5827e-05,
        "meta_mean_motion_dot": 8.95e-06,
        "meta_mean_motion_ddot": 0,
        "tle_line1": "1 36605U 10030A   25358.57494478  .00000895  00000+0  45827-4 0  9996",
        "tle_line2": "2 36605  97.4454   3.7821 0001773  94.5594 265.5843 15.19151393860139"
      },
      "geometry": {
        "type": "Point",
        "coordinates": [
          -174.06643138581583,
          7.23997434176496
        ]
      }
    },
    {
      "type": "Feature",
      "properties": {
        "norad_id": 36795,
        "name": "CARTOSAT-2B",
        "group": "resource",
        "lat": 60.61114764104663,
        "lon": -117.54873490714178,
        "alt_km": 625.9563646901697,
        "timestamp": "2025-12-25T19:00:39.004953+00:00",
        "meta_object_name": "CARTOSAT-2B",
        "meta_object_id": "2010-035A",
        "meta_epoch": "2025-12-25T07:06:37.799712",
        "meta_mean_motion": 14.78742942,
        "meta_eccentricity": 0.00125583,
        "meta_inclination": 97.7831,
        "meta_ra_of_asc_node": 47.9171,
        "meta_arg_of_pericenter": 39.4538,
        "meta_mean_anomaly": 320.7585,
        "meta_ephemeris_type": 0,
        "meta_classification_type": "U",
        "meta_norad_cat_id": 36795,
        "meta_element_set_no": 999,
        "meta_rev_at_epoch": 83415,
        "meta_bstar": 0.0001324996,
        "meta_mean_motion_dot": 9.24e-06,
        "meta_mean_motion_ddot": 0,
        "tle_line1": "1 36795U 10035A   25359.29627083  .00000924  00000+0  13250-3 0  9998",
        "tle_line2": "2 36795  97.7831  47.9171 0012558  39.4538 320.7585 14.78742942834158"
      },
      "geometry": {
        "type": "Point",
        "coordinates": [
          -117.54873490714178,
          60.61114764104663
        ]
      }
    },
    {
      "type": "Feature",
      "properties": {
        "norad_id": 36834,
        "name": "YAOGAN-10",
        "group": "resource",
        "lat": 63.525211545016354,
        "lon": -144.26805197332638,
        "alt_km": 607.6625047591915,
        "timestamp": "2025-12-25T19:00:39.004964+00:00",
        "meta_object_name": "YAOGAN-10",
        "meta_object_id": "2010-038A",
        "meta_epoch": "2025-12-25T07:45:22.606848",
        "meta_mean_motion": 14.84657289,
        "meta_eccentricity": 0.00014301,
        "meta_inclination": 97.9133,
        "meta_ra_of_asc_node": 19.0491,
        "meta_arg_of_pericenter": 80.0606,
        "meta_mean_anomaly": 50.3835,
        "meta_ephemeris_type": 0,
        "meta_classification_type": "U",
        "meta_norad_cat_id": 36834,
        "meta_element_set_no": 999,
        "meta_rev_at_epoch": 83140,
        "meta_bstar": 0.00036503325,
        "meta_mean_motion_dot": 3.034e-05,
        "meta_mean_motion_ddot": 0,
        "tle_line1": "1 36834U 10038A   25359.32317832  .00003034  00000+0  36503-3 0  9998",
        "tle_line2": "2 36834  97.9133  19.0491 0001430  80.0606  50.3835 14.84657289831404"
      },
      "geometry": {
        "type": "Point",
        "coordinates": [
          -144.26805197332638,
          63.525211545016354
        ]
      }
    },
    {
      "type": "Feature",
      "properties": {
        "norad_id": 37216,
        "name": "COSMO-SKYMED 4",
        "group": "resource",
        "lat": -75.57533694665828,
        "lon": -146.5012065706552,
        "alt_km": 630.7367843335296,
        "timestamp": "2025-12-25T19:00:39.004974+00:00",
        "meta_object_name": "COSMO-SKYMED 4",
        "meta_object_id": "2010-060A",
        "meta_epoch": "2025-12-25T06:23:59.441280",
        "meta_mean_motion": 14.82159279,
        "meta_eccentricity": 0.00013643,
        "meta_inclination": 97.8804,
        "meta_ra_of_asc_node": 180.401,
        "meta_arg_of_pericenter": 83.2998,
        "meta_mean_anomaly": 276.8371,
        "meta_ephemeris_type": 0,
        "meta_classification_type": "U",
        "meta_norad_cat_id": 37216,
        "meta_element_set_no": 999,
        "meta_rev_at_epoch": 81880,
        "meta_bstar": 9.4579145e-05,
        "meta_mean_motion_dot": 7.01e-06,
        "meta_mean_motion_ddot": 0,
        "tle_line1": "1 37216U 10060A   25359.26666020  .00000701  00000+0  94579-4 0  9993",
        "tle_line2": "2 37216  97.8804 180.4010 0001364  83.2998 276.8371 14.82159279818801"
      },
      "geometry": {
        "type": "Point",
        "coordinates": [
          -146.5012065706552,
          -75.57533694665828
        ]
      }
    },
    {
      "type": "Feature",
      "properties": {
        "norad_id": 37387,
        "name": "RESOURCESAT-2",
        "group": "resource",
        "lat": -71.31757656004889,
        "lon": 90.50217257044638,
        "alt_km": 826.4863594768021,
        "timestamp": "2025-12-25T19:00:39.004985+00:00",
        "meta_object_name": "RESOURCESAT-2",
        "meta_object_id": "2011-015A",
        "meta_epoch": "2025-12-25T04:09:10.470240",
        "meta_mean_motion": 14.21602011,
        "meta_eccentricity": 0.00058097,
        "meta_inclination": 98.786,
        "meta_ra_of_asc_node": 62.6682,
        "meta_arg_of_pericenter": 8.5404,
        "meta_mean_anomaly": 351.5871,
        "meta_ephemeris_type": 0,
        "meta_classification_type": "U",
        "meta_norad_cat_id": 37387,
        "meta_element_set_no": 999,
        "meta_rev_at_epoch": 76145,
        "meta_bstar": 8.2340696e-05,
        "meta_mean_motion_dot": 1.36e-06,
        "meta_mean_motion_ddot": 0,
        "tle_line1": "1 37387U 11015A   25359.17303785  .00000136  00000+0  82341-4 0  9995",
        "tle_line2": "2 37387  98.7860  62.6682 0005809   8.5404 351.5871 14.21602011761452"
      },
      "geometry": {
        "type": "Point",
        "coordinates": [
          90.50217257044638,
          -71.31757656004889
        ]
      }
    }
  ]
}